{
  "norad_id": 66636,
  "name": "STARLINK-35968",
  "history": [
    {
      "epoch": "2026-03-28T15:05:06.797760Z",
      "apogee_km": 476.30835742173895,
      "perigee_km": 473.93987038077466,
      "latitude_deg": 4.889889543368629e-05,
      "longitude_deg": -0.1738514254358546,
      "height_km": 476.16153908600745,
      "semi_major_axis_km": 6853.261113901256,
      "eccentricity": 0.0001728,
      "inclination_deg": 53.1597,
      "raan_deg": 52.1507,
      "arg_perigee_deg": 96.7896,
      "mean_anomaly_deg": 263.3302,
      "mean_motion_rev_day": 15.30230463
    },
    {
      "epoch": "2026-03-29T03:37:31.367136Z",
      "apogee_km": 476.64540956897054,
      "perigee_km": 473.5203413057716,
      "latitude_deg": 6.779987059931389e-06,
      "longitude_deg": 168.7832387295365,
      "height_km": 475.9324628111014,
      "semi_major_axis_km": 6853.219875437371,
      "eccentricity": 0.000228,
      "inclination_deg": 53.1631,
      "raan_deg": 49.7252,
      "arg_perigee_deg": 88.2622,
      "mean_anomaly_deg": 271.864,
      "mean_motion_rev_day": 15.30244275
    },
    {
      "epoch": "2026-03-30T04:42:22.149216Z",
      "apogee_km": 476.2929061526029,
      "perigee_km": 474.14095301871384,
      "latitude_deg": 1.3029430514191406e-05,
      "longitude_deg": 146.68652130524038,
      "height_km": 475.9641137279739,
      "semi_major_axis_km": 6853.353929585658,
      "eccentricity": 0.000157,
      "inclination_deg": 53.1617,
      "raan_deg": 44.8701,
      "arg_perigee_deg": 81.9499,
      "mean_anomaly_deg": 278.168,
      "mean_motion_rev_day": 15.30199377
    }
  ]
}